start=new Date('2021-11-18T00:00:00.000Z').valueOf();
sats=[{"NORAD_CAT_ID":"45234","TIME_SYSTEM":"UTC","DECAY_DATE":null,"FILE":"3217982","TLE_LINE2":"2 45234  53.0534 268.6076 0001798  61.5315 298.5854 15.06393373 97705","RCS_SIZE":"LARGE","OBJECT_NAME":"STARLINK-1243","RA_OF_ASC_NODE":"268.6076","BSTAR":"0.00001925100000","APOAPSIS":"548.479","INCLINATION":"53.0534","GP_ID":"189975447","CLASSIFICATION_TYPE":"U","OBJECT_TYPE":"PAYLOAD","REF_FRAME":"TEME","OBJECT_ID":"2020-012BJ","PERIAPSIS":"545.989","MEAN_MOTION_DDOT":"0.0000000000000","EPHEMERIS_TYPE":"0","LAUNCH_DATE":"2020-02-17","PERIOD":"95.593","SEMIMAJOR_AXIS":"6925.369","COUNTRY_CODE":"US","SITE":"AFETR","MEAN_ANOMALY":"298.5854","CENTER_NAME":"EARTH","EPOCH":"2021-11-17T13:46:07.740480","MEAN_MOTION_DOT":"0.00000005","REV_AT_EPOCH":"9770","MEAN_ELEMENT_THEORY":"SGP4","TLE_LINE1":"1 45234U 20012BJ  21321.57370070  .00000005  00000-0  19251-4 0  9998","ELEMENT_SET_NO":"999","ECCENTRICITY":"0.00017980","MEAN_MOTION":"15.06393373","ARG_OF_PERICENTER":"61.5315"},{"ELEMENT_SET_NO":"999","TLE_LINE1":"1 45235U 20012BK  21321.89069205  .00000055  00000-0  22606-4 0  9992","ECCENTRICITY":"0.00017380","MEAN_ELEMENT_THEORY":"SGP4","ARG_OF_PERICENTER":"75.5946","MEAN_MOTION":"15.06401702","MEAN_ANOMALY":"284.5236","CENTER_NAME":"EARTH","REV_AT_EPOCH":"9780","MEAN_MOTION_DOT":"0.00000055","EPOCH":"2021-11-17T21:22:35.793120","LAUNCH_DATE":"2020-02-17","SEMIMAJOR_AXIS":"6925.343","PERIOD":"95.592","COUNTRY_CODE":"US","SITE":"AFETR","OBJECT_ID":"2020-012BK","REF_FRAME":"TEME","EPHEMERIS_TYPE":"0","PERIAPSIS":"546.005","MEAN_MOTION_DDOT":"0.0000000000000","OBJECT_TYPE":"PAYLOAD","BSTAR":"0.00002260600000","APOAPSIS":"548.412","CLASSIFICATION_TYPE":"U","GP_ID":"189975700","INCLINATION":"53.0554","FILE":"3217982","OBJECT_NAME":"STARLINK-1246","RA_OF_ASC_NODE":"267.1962","TLE_LINE2":"2 45235  53.0554 267.1962 0001738  75.5946 284.5236 15.06401702 97801","RCS_SIZE":"LARGE","NORAD_CAT_ID":"45235","TIME_SYSTEM":"UTC","DECAY_DATE":null},{"REF_FRAME":"TEME","OBJECT_ID":"2020-012BL","PERIAPSIS":"545.876","MEAN_MOTION_DDOT":"0.0000000000000","EPHEMERIS_TYPE":"0","LAUNCH_DATE":"2020-02-17","SEMIMAJOR_AXIS":"6925.353","PERIOD":"95.592","COUNTRY_CODE":"US","SITE":"AFETR","MEAN_ANOMALY":"285.6118","CENTER_NAME":"EARTH","EPOCH":"2021-11-17T11:22:49.204704","REV_AT_EPOCH":"9827","MEAN_MOTION_DOT":"0.00001675","MEAN_ELEMENT_THEORY":"SGP4","TLE_LINE1":"1 45236U 20012BL  21321.47418061  .00001675  00000-0  13134-3 0  9999","ELEMENT_SET_NO":"999","ECCENTRICITY":"0.00019380","MEAN_MOTION":"15.06398526","ARG_OF_PERICENTER":"74.5085","NORAD_CAT_ID":"45236","TIME_SYSTEM":"UTC","DECAY_DATE":null,"FILE":"3217982","TLE_LINE2":"2 45236  53.0537 229.0603 0001938  74.5085 285.6118 15.06398526 98279","RCS_SIZE":"LARGE","RA_OF_ASC_NODE":"229.0603","OBJECT_NAME":"STARLINK-1247","BSTAR":"0.00013134000000","APOAPSIS":"548.560","INCLINATION":"53.0537","GP_ID":"189973948","CLASSIFICATION_TYPE":"U","OBJECT_TYPE":"PAYLOAD"},{"MEAN_MOTION_DDOT":"0.0000000000000","PERIAPSIS":"545.864","EPHEMERIS_TYPE":"0","REF_FRAME":"TEME","OBJECT_ID":"2020-012BM","SITE":"AFETR","COUNTRY_CODE":"US","SEMIMAJOR_AXIS":"6925.373","LAUNCH_DATE":"2020-02-17","PERIOD":"95.593","EPOCH":"2021-11-17T16:41:17.184192","REV_AT_EPOCH":"9831","MEAN_MOTION_DOT":"-0.00000333","CENTER_NAME":"EARTH","MEAN_ANOMALY":"285.7657","MEAN_MOTION":"15.06392119","ARG_OF_PERICENTER":"74.3551","MEAN_ELEMENT_THEORY":"SGP4","ECCENTRICITY":"0.00019840","ELEMENT_SET_NO":"999","TLE_LINE1":"1 45237U 20012BM  21321.69533778 -.00000333  00000-0 -34230-5 0  9991","DECAY_DATE":null,"TIME_SYSTEM":"UTC","NORAD_CAT_ID":"45237","RCS_SIZE":"LARGE","TLE_LINE2":"2 45237  53.0547 228.0754 0001984  74.3551 285.7657 15.06392119 98310","RA_OF_ASC_NODE":"228.0754","OBJECT_NAME":"STARLINK-1270","FILE":"3217982","GP_ID":"189974198","INCLINATION":"53.0547","CLASSIFICATION_TYPE":"U","APOAPSIS":"548.612","BSTAR":"-0.00000342300000","OBJECT_TYPE":"PAYLOAD"},{"MEAN_MOTION":"15.06408967","ARG_OF_PERICENTER":"65.3535","MEAN_ELEMENT_THEORY":"SGP4","ECCENTRICITY":"0.00011730","TLE_LINE1":"1 45360U 20019A   21321.58751764  .00000192  00000-0  31804-4 0  9994","ELEMENT_SET_NO":"999","EPOCH":"2021-11-17T14:06:01.524096","REV_AT_EPOCH":"9303","MEAN_MOTION_DOT":"0.00000192","CENTER_NAME":"EARTH","MEAN_ANOMALY":"294.7576","COUNTRY_CODE":"US","SITE":"AFETR","SEMIMAJOR_AXIS":"6925.321","LAUNCH_DATE":"2020-03-18","PERIOD":"95.592","MEAN_MOTION_DDOT":"0.0000000000000","PERIAPSIS":"546.374","EPHEMERIS_TYPE":"0","REF_FRAME":"TEME","OBJECT_ID":"2020-019A","OBJECT_TYPE":"PAYLOAD","GP_ID":"189973962","INCLINATION":"53.0559","CLASSIFICATION_TYPE":"U","APOAPSIS":"547.998","BSTAR":"0.00003180400000","RCS_SIZE":"LARGE","TLE_LINE2":"2 45360  53.0559 358.5488 0001173  65.3535 294.7576 15.06408967 93038","OBJECT_NAME":"STARLINK-1279","RA_OF_ASC_NODE":"358.5488","FILE":"3217982","DECAY_DATE":null,"TIME_SYSTEM":"UTC","NORAD_CAT_ID":"45360"},{"SITE":"AFETR","COUNTRY_CODE":"US","LAUNCH_DATE":"2020-03-18","PERIOD":"95.592","SEMIMAJOR_AXIS":"6925.337","EPHEMERIS_TYPE":"0","MEAN_MOTION_DDOT":"0.0000000000000","PERIAPSIS":"546.373","OBJECT_ID":"2020-019B","REF_FRAME":"TEME","ARG_OF_PERICENTER":"66.1812","MEAN_MOTION":"15.06403873","ECCENTRICITY":"0.00011970","TLE_LINE1":"1 45361U 20019B   21321.84092291  .00002020  00000-0  15441-3 0  9997","ELEMENT_SET_NO":"999","MEAN_ELEMENT_THEORY":"SGP4","MEAN_MOTION_DOT":"0.00002020","REV_AT_EPOCH":"9294","EPOCH":"2021-11-17T20:10:55.739424","CENTER_NAME":"EARTH","MEAN_ANOMALY":"293.9302","RA_OF_ASC_NODE":"7.4116","OBJECT_NAME":"STARLINK-1301","RCS_SIZE":"LARGE","TLE_LINE2":"2 45361  53.0560   7.4116 0001197  66.1812 293.9302 15.06403873 92940","FILE":"3217982","DECAY_DATE":null,"TIME_SYSTEM":"UTC","NORAD_CAT_ID":"45361","OBJECT_TYPE":"PAYLOAD","CLASSIFICATION_TYPE":"U","INCLINATION":"53.0560","GP_ID":"189974212","APOAPSIS":"548.031","BSTAR":"0.00015441000000"},{"COUNTRY_CODE":"US","SITE":"AFETR","SEMIMAJOR_AXIS":"6925.332","LAUNCH_DATE":"2020-03-18","PERIOD":"95.592","REF_FRAME":"TEME","OBJECT_ID":"2020-019C","MEAN_MOTION_DDOT":"0.0000000000000","PERIAPSIS":"546.172","EPHEMERIS_TYPE":"0","MEAN_ELEMENT_THEORY":"SGP4","ECCENTRICITY":"0.00014800","TLE_LINE1":"1 45362U 20019C   21321.88700751  .00000123  00000-0  27169-4 0  9992","ELEMENT_SET_NO":"999","MEAN_MOTION":"15.06405558","ARG_OF_PERICENTER":"76.9573","CENTER_NAME":"EARTH","MEAN_ANOMALY":"283.1581","EPOCH":"2021-11-17T21:17:17.448864","REV_AT_EPOCH":"9266","MEAN_MOTION_DOT":"0.00000123","FILE":"3217982","RCS_SIZE":"LARGE","TLE_LINE2":"2 45362  53.0552  27.2048 0001480  76.9573 283.1581 15.06405558 92665","RA_OF_ASC_NODE":"27.2048","OBJECT_NAME":"STARLINK-1306","TIME_SYSTEM":"UTC","NORAD_CAT_ID":"45362","DECAY_DATE":null,"OBJECT_TYPE":"PAYLOAD","APOAPSIS":"548.221","BSTAR":"0.00002716900000","INCLINATION":"53.0552","GP_ID":"189974961","CLASSIFICATION_TYPE":"U"},{"OBJECT_TYPE":"PAYLOAD","GP_ID":"189975214","INCLINATION":"53.0560","CLASSIFICATION_TYPE":"U","BSTAR":"0.00004293300000","APOAPSIS":"548.177","TLE_LINE2":"2 45364  53.0560 358.5696 0001393  73.1568 286.9574 15.06400429 93038","RCS_SIZE":"LARGE","OBJECT_NAME":"STARLINK-1313","RA_OF_ASC_NODE":"358.5696","FILE":"3217982","DECAY_DATE":null,"NORAD_CAT_ID":"45364","TIME_SYSTEM":"UTC","MEAN_MOTION":"15.06400429","ARG_OF_PERICENTER":"73.1568","MEAN_ELEMENT_THEORY":"SGP4","TLE_LINE1":"1 45364U 20019E   21321.58383980  .00000358  00000-0  42933-4 0  9998","ELEMENT_SET_NO":"999","ECCENTRICITY":"0.00013930","EPOCH":"2021-11-17T14:00:43.758720","REV_AT_EPOCH":"9303","MEAN_MOTION_DOT":"0.00000358","MEAN_ANOMALY":"286.9574","CENTER_NAME":"EARTH","LAUNCH_DATE":"2020-03-18","PERIOD":"95.592","SEMIMAJOR_AXIS":"6925.347","SITE":"AFETR","COUNTRY_CODE":"US","PERIAPSIS":"546.248","MEAN_MOTION_DDOT":"0.0000000000000","EPHEMERIS_TYPE":"0","REF_FRAME":"TEME","OBJECT_ID":"2020-019E"},{"TLE_LINE1":"1 45365U 20019F   21321.54377955 -.00006853  00000-0 -45111-3 0  9998","ELEMENT_SET_NO":"999","ECCENTRICITY":"0.00013060","MEAN_ELEMENT_THEORY":"SGP4","ARG_OF_PERICENTER":"90.2925","MEAN_MOTION":"15.05621495","MEAN_ANOMALY":"269.8213","CENTER_NAME":"EARTH","REV_AT_EPOCH":"9286","MEAN_MOTION_DOT":"-0.00006853","EPOCH":"2021-11-17T13:03:02.553120","LAUNCH_DATE":"2020-03-18","SEMIMAJOR_AXIS":"6927.736","PERIOD":"95.642","SITE":"AFETR","COUNTRY_CODE":"US","OBJECT_ID":"2020-019F","REF_FRAME":"TEME","EPHEMERIS_TYPE":"0","PERIAPSIS":"548.696","MEAN_MOTION_DDOT":"0.0000000000000","OBJECT_TYPE":"PAYLOAD","BSTAR":"-0.00045111000000","APOAPSIS":"550.505","CLASSIFICATION_TYPE":"U","GP_ID":"189974463","INCLINATION":"53.0034","FILE":"3217982","RA_OF_ASC_NODE":"8.7491","OBJECT_NAME":"STARLINK-1317","TLE_LINE2":"2 45365  53.0034   8.7491 0001306  90.2925 269.8213 15.05621495 92860","RCS_SIZE":"LARGE","NORAD_CAT_ID":"45365","TIME_SYSTEM":"UTC","DECAY_DATE":null},{"LAUNCH_DATE":"2020-03-18","SEMIMAJOR_AXIS":"6925.340","PERIOD":"95.592","COUNTRY_CODE":"US","SITE":"AFETR","OBJECT_ID":"2020-019G","REF_FRAME":"TEME","EPHEMERIS_TYPE":"0","PERIAPSIS":"546.261","MEAN_MOTION_DDOT":"0.0000000000000","TLE_LINE1":"1 45366U 20019G   21321.47418162  .00000365  00000-0  43422-4 0  9991","ELEMENT_SET_NO":"999","ECCENTRICITY":"0.00013630","MEAN_ELEMENT_THEORY":"SGP4","ARG_OF_PERICENTER":"72.0506","MEAN_MOTION":"15.06402668","MEAN_ANOMALY":"288.0631","CENTER_NAME":"EARTH","MEAN_MOTION_DOT":"0.00000365","REV_AT_EPOCH":"9261","EPOCH":"2021-11-17T11:22:49.291968","FILE":"3217982","RA_OF_ASC_NODE":"29.0534","OBJECT_NAME":"STARLINK-1262","TLE_LINE2":"2 45366  53.0557  29.0534 0001363  72.0506 288.0631 15.06402668 92611","RCS_SIZE":"LARGE","NORAD_CAT_ID":"45366","TIME_SYSTEM":"UTC","DECAY_DATE":null,"OBJECT_TYPE":"PAYLOAD","BSTAR":"0.00004342200000","APOAPSIS":"548.149","CLASSIFICATION_TYPE":"U","GP_ID":"189974713","INCLINATION":"53.0557"}];
